ONEWEB-0311             
1 49097U 21075Y   25028.49993596  .00000062  00000+0  12774-3 0  9996
2 49097  87.9083 106.4133 0001678  89.5364 270.5959 13.17649686168161
ONEWEB-0312             
1 49098U 21075Z   25028.43918376  .00000110  00000+0  24952-3 0  9999
2 49098  87.9083 106.4567 0002092  92.5821 267.5550 13.17648786167135
ONEWEB-0313             
1 49099U 21075AA  25028.44411500  .00000093  00000+0  20633-3 0  9990
2 49099  87.9082 106.4713 0001938  95.4387 264.6966 13.17648008168121
ONEWEB-0314             
1 49100U 21075AB  25028.48643388  .00000079  00000+0  17040-3 0  9990
2 49100  87.9078 106.3995 0002017  92.2217 267.9145 13.17648734167104
ONEWEB-0315             
1 49101U 21075AC  25028.44310892 -.00000012  00000+0 -69677-4 0  9991
2 49101  87.8843  91.1503 0001541  91.0229 269.1076 13.12445438169965
ONEWEB-0316             
1 49102U 21075AD  25028.50491331  .00000047  00000+0  86631-4 0  9992
2 49102  87.9070  75.8582 0001765  90.8732 269.2602 13.18685532170694
ONEWEB-0317             
1 49103U 21075AE  25028.43661762 -.00000492  00000+0 -14024-2 0  9993
2 49103  87.8845  91.1644 0002118 113.8861 246.2490 13.12442724169973
ONEWEB-0318             
1 49104U 21075AF  25028.42587493  .00000028  00000+0  39434-4 0  9998
2 49104  87.9066  75.8617 0001750  89.0204 271.1129 13.18684959170641
